[{"OBJECT_NAME":"EXPRESS 80","OBJECT_ID":"2020-053B","EPOCH":"2026-03-02T07:59:25.083744","MEAN_MOTION":1.00278276,"ECCENTRICITY":0.00022217,"INCLINATION":0.0383,"RA_OF_ASC_NODE":266.3297,"ARG_OF_PERICENTER":21.043,"MEAN_ANOMALY":72.5659,"EPHEMERIS_TYPE":0,"CLASSIFICATION_TYPE":"U","NORAD_CAT_ID":45986,"ELEMENT_SET_NO":999,"REV_AT_EPOCH":2057,"BSTAR":0,"MEAN_MOTION_DOT":-1.54e-6,"MEAN_MOTION_DDOT":0},{"OBJECT_NAME":"BSAT-4B","OBJECT_ID":"2020-056A","EPOCH":"2026-03-02T23:46:05.863296","MEAN_MOTION":1.00273318,"ECCENTRICITY":0.000131,"INCLINATION":0.0375,"RA_OF_ASC_NODE":203.5979,"ARG_OF_PERICENTER":239.4094,"MEAN_ANOMALY":184.0959,"EPHEMERIS_TYPE":0,"CLASSIFICATION_TYPE":"U","NORAD_CAT_ID":46112,"ELEMENT_SET_NO":999,"REV_AT_EPOCH":2032,"BSTAR":0,"MEAN_MOTION_DOT":-3.66e-6,"MEAN_MOTION_DDOT":0},{"OBJECT_NAME":"MEV-2","OBJECT_ID":"2020-056B","EPOCH":"2026-03-02T20:57:20.604096","MEAN_MOTION":1.00270496,"ECCENTRICITY":0.0001042,"INCLINATION":0.0151,"RA_OF_ASC_NODE":123.043,"ARG_OF_PERICENTER":253.4183,"MEAN_ANOMALY":97.4995,"EPHEMERIS_TYPE":0,"CLASSIFICATION_TYPE":"U","NORAD_CAT_ID":46113,"ELEMENT_SET_NO":999,"REV_AT_EPOCH":7949,"BSTAR":0,"MEAN_MOTION_DOT":-2.8e-7,"MEAN_MOTION_DDOT":0},{"OBJECT_NAME":"GALAXY 30 (G-30)","OBJECT_ID":"2020-056C","EPOCH":"2026-03-03T03:49:38.807616","MEAN_MOTION":1.00272235,"ECCENTRICITY":0.0002205,"INCLINATION":0.0168,"RA_OF_ASC_NODE":121.9575,"ARG_OF_PERICENTER":218.1627,"MEAN_ANOMALY":113.197,"EPHEMERIS_TYPE":0,"CLASSIFICATION_TYPE":"U","NORAD_CAT_ID":46114,"ELEMENT_SET_NO":999,"REV_AT_EPOCH":2022,"BSTAR":0,"MEAN_MOTION_DOT":2.1e-7,"MEAN_MOTION_DDOT":0},{"OBJECT_NAME":"GAOFEN-13 01","OBJECT_ID":"2020-071A","EPOCH":"2026-03-02T23:14:10.453920","MEAN_MOTION":1.00275611,"ECCENTRICITY":0.0043121,"INCLINATION":0.2466,"RA_OF_ASC_NODE":85.771,"ARG_OF_PERICENTER":120.1114,"MEAN_ANOMALY":61.6085,"EPHEMERIS_TYPE":0,"CLASSIFICATION_TYPE":"U","NORAD_CAT_ID":46610,"ELEMENT_SET_NO":999,"REV_AT_EPOCH":1985,"BSTAR":0,"MEAN_MOTION_DOT":-3.79e-6,"MEAN_MOTION_DDOT":0},{"OBJECT_NAME":"TIANTONG-1 2","OBJECT_ID":"2020-082A","EPOCH":"2026-03-03T00:58:37.941024","MEAN_MOTION":1.00274772,"ECCENTRICITY":0.0003509,"INCLINATION":0.9531,"RA_OF_ASC_NODE":314.7117,"ARG_OF_PERICENTER":21.7087,"MEAN_ANOMALY":324.0014,"EPHEMERIS_TYPE":0,"CLASSIFICATION_TYPE":"U","NORAD_CAT_ID":46916,"ELEMENT_SET_NO":999,"REV_AT_EPOCH":1958,"BSTAR":0,"MEAN_MOTION_DOT":-3.72e-6,"MEAN_MOTION_DDOT":0},{"OBJECT_NAME":"LUCAS (JDRS-1)","OBJECT_ID":"2020-089A","EPOCH":"2026-03-03T02:31:33.888576","MEAN_MOTION":1.00273534,"ECCENTRICITY":0.0002825,"INCLINATION":0.0642,"RA_OF_ASC_NODE":275.412,"ARG_OF_PERICENTER":61.6771,"MEAN_ANOMALY":312.4242,"EPHEMERIS_TYPE":0,"CLASSIFICATION_TYPE":"U","NORAD_CAT_ID":47202,"ELEMENT_SET_NO":999,"REV_AT_EPOCH":1935,"BSTAR":0,"MEAN_MOTION_DOT":-2.51e-6,"MEAN_MOTION_DDOT":0},{"OBJECT_NAME":"SXM-7","OBJECT_ID":"2020-096A","EPOCH":"2026-03-02T08:50:38.666112","MEAN_MOTION":1.00275144,"ECCENTRICITY":0.00040249,"INCLINATION":0.0187,"RA_OF_ASC_NODE":122.031,"ARG_OF_PERICENTER":7.7857,"MEAN_ANOMALY":77.7989,"EPHEMERIS_TYPE":0,"CLASSIFICATION_TYPE":"U","NORAD_CAT_ID":47240,"ELEMENT_SET_NO":999,"REV_AT_EPOCH":637,"BSTAR":0,"MEAN_MOTION_DOT":-2.23e-6,"MEAN_MOTION_DDOT":0},{"OBJECT_NAME":"CMS-01","OBJECT_ID":"2020-099A","EPOCH":"2026-03-02T15:48:26.553024","MEAN_MOTION":1.00272363,"ECCENTRICITY":0.0006539,"INCLINATION":0.0149,"RA_OF_ASC_NODE":136.5446,"ARG_OF_PERICENTER":152.2006,"MEAN_ANOMALY":191.7769,"EPHEMERIS_TYPE":0,"CLASSIFICATION_TYPE":"U","NORAD_CAT_ID":47256,"ELEMENT_SET_NO":999,"REV_AT_EPOCH":1913,"BSTAR":0,"MEAN_MOTION_DOT":-1.81e-6,"MEAN_MOTION_DDOT":0},{"OBJECT_NAME":"TURKSAT 5A","OBJECT_ID":"2021-001A","EPOCH":"2026-03-03T02:14:35.515104","MEAN_MOTION":1.00270586,"ECCENTRICITY":1.21e-5,"INCLINATION":0.0212,"RA_OF_ASC_NODE":100.7731,"ARG_OF_PERICENTER":200.8426,"MEAN_ANOMALY":283.8022,"EPHEMERIS_TYPE":0,"CLASSIFICATION_TYPE":"U","NORAD_CAT_ID":47306,"ELEMENT_SET_NO":999,"REV_AT_EPOCH":1890,"BSTAR":0,"MEAN_MOTION_DOT":1.38e-6,"MEAN_MOTION_DDOT":0},{"OBJECT_NAME":"TIANTONG-1 3","OBJECT_ID":"2021-003A","EPOCH":"2026-03-03T03:35:38.592672","MEAN_MOTION":1.00270235,"ECCENTRICITY":0.0006437,"INCLINATION":1.8545,"RA_OF_ASC_NODE":333.1891,"ARG_OF_PERICENTER":343.6351,"MEAN_ANOMALY":339.5017,"EPHEMERIS_TYPE":0,"CLASSIFICATION_TYPE":"U","NORAD_CAT_ID":47321,"ELEMENT_SET_NO":999,"REV_AT_EPOCH":1889,"BSTAR":0,"MEAN_MOTION_DOT":-1.69e-6,"MEAN_MOTION_DDOT":0},{"OBJECT_NAME":"TJS-6","OBJECT_ID":"2021-010A","EPOCH":"2026-03-03T04:39:21.639744","MEAN_MOTION":1.00270201,"ECCENTRICITY":0.0003229,"INCLINATION":0.3263,"RA_OF_ASC_NODE":90.8674,"ARG_OF_PERICENTER":282.5284,"MEAN_ANOMALY":35.8827,"EPHEMERIS_TYPE":0,"CLASSIFICATION_TYPE":"U","NORAD_CAT_ID":47613,"ELEMENT_SET_NO":999,"REV_AT_EPOCH":1874,"BSTAR":0,"MEAN_MOTION_DOT":2.7e-7,"MEAN_MOTION_DDOT":0},{"OBJECT_NAME":"SHIYAN-9 (SY-9)","OBJECT_ID":"2021-019A","EPOCH":"2026-02-13T08:49:37.634880","MEAN_MOTION":1.00262375,"ECCENTRICITY":0.0016854,"INCLINATION":16.7978,"RA_OF_ASC_NODE":304.0404,"ARG_OF_PERICENTER":23.4452,"MEAN_ANOMALY":94.4865,"EPHEMERIS_TYPE":0,"CLASSIFICATION_TYPE":"U","NORAD_CAT_ID":47851,"ELEMENT_SET_NO":999,"REV_AT_EPOCH":2289,"BSTAR":0,"MEAN_MOTION_DOT":-2.21e-6,"MEAN_MOTION_DDOT":0},{"OBJECT_NAME":"SBIRS GEO-5 (USA 315)","OBJECT_ID":"2021-042A","EPOCH":"2026-03-03T02:32:33.794016","MEAN_MOTION":1.00271475,"ECCENTRICITY":0.0001544,"INCLINATION":5.2386,"RA_OF_ASC_NODE":328.3295,"ARG_OF_PERICENTER":356.9012,"MEAN_ANOMALY":327.5585,"EPHEMERIS_TYPE":0,"CLASSIFICATION_TYPE":"U","NORAD_CAT_ID":48618,"ELEMENT_SET_NO":999,"REV_AT_EPOCH":1770,"BSTAR":0,"MEAN_MOTION_DOT":-2.83e-6,"MEAN_MOTION_DDOT":0},{"OBJECT_NAME":"FENGYUN 4B","OBJECT_ID":"2021-047A","EPOCH":"2026-03-03T02:35:33.506880","MEAN_MOTION":1.00265595,"ECCENTRICITY":0.0008832,"INCLINATION":0.1889,"RA_OF_ASC_NODE":76.8981,"ARG_OF_PERICENTER":296.5824,"MEAN_ANOMALY":290.8175,"EPHEMERIS_TYPE":0,"CLASSIFICATION_TYPE":"U","NORAD_CAT_ID":48808,"ELEMENT_SET_NO":999,"REV_AT_EPOCH":1750,"BSTAR":0,"MEAN_MOTION_DOT":-3.44e-6,"MEAN_MOTION_DDOT":0},{"OBJECT_NAME":"SXM-8","OBJECT_ID":"2021-049A","EPOCH":"2026-03-02T06:31:38.410176","MEAN_MOTION":1.00274439,"ECCENTRICITY":0.0004221,"INCLINATION":0.0258,"RA_OF_ASC_NODE":60.0583,"ARG_OF_PERICENTER":343.6903,"MEAN_ANOMALY":129.0399,"EPHEMERIS_TYPE":0,"CLASSIFICATION_TYPE":"U","NORAD_CAT_ID":48838,"ELEMENT_SET_NO":999,"REV_AT_EPOCH":1752,"BSTAR":0,"MEAN_MOTION_DOT":-2.23e-6,"MEAN_MOTION_DDOT":0},{"OBJECT_NAME":"TIANLIAN 1-05","OBJECT_ID":"2021-063A","EPOCH":"2026-03-03T03:53:11.065632","MEAN_MOTION":1.0027111,"ECCENTRICITY":0.000467,"INCLINATION":1.3203,"RA_OF_ASC_NODE":81.5896,"ARG_OF_PERICENTER":227.1588,"MEAN_ANOMALY":287.2217,"EPHEMERIS_TYPE":0,"CLASSIFICATION_TYPE":"U","NORAD_CAT_ID":49011,"ELEMENT_SET_NO":999,"REV_AT_EPOCH":1701,"BSTAR":0,"MEAN_MOTION_DOT":9.2e-7,"MEAN_MOTION_DDOT":0}]
