EXPRESS 80              
1 45986U 20053B   26061.33292921 -.00000154  00000+0  00000+0 0  9997
2 45986   0.0383 266.3297 0002221  21.0430  72.5659  1.00278276 20571
BSAT-4B                 
1 46112U 20056A   26061.99034564 -.00000366  00000+0  00000+0 0  9996
2 46112   0.0375 203.5979 0001310 239.4094 184.0959  1.00273318 20320
MEV-2                   
1 46113U 20056B   26061.87315514 -.00000028  00000+0  00000+0 0  9996
2 46113   0.0151 123.0430 0001042 253.4183  97.4995  1.00270496 79491
GALAXY 30 (G-30)        
1 46114U 20056C   26062.15947694  .00000021  00000+0  00000+0 0  9991
2 46114   0.0168 121.9575 0002205 218.1627 113.1970  1.00272235 20229
GAOFEN-13 01            
1 46610U 20071A   26061.96817655 -.00000379  00000+0  00000+0 0  9997
2 46610   0.2466  85.7710 0043121 120.1114  61.6085  1.00275611 19858
TIANTONG-1 2            
1 46916U 20082A   26062.04071691 -.00000372  00000+0  00000+0 0  9993
2 46916   0.9531 314.7117 0003509  21.7087 324.0014  1.00274772 19589
LUCAS (JDRS-1)          
1 47202U 20089A   26062.10525334 -.00000251  00000+0  00000+0 0  9990
2 47202   0.0642 275.4120 0002825  61.6771 312.4242  1.00273534 19356
SXM-7                   
1 47240U 20096A   26061.36850308 -.00000223  00000+0  00000+0 0  9998
2 47240   0.0187 122.0310 0004024   7.7857  77.7989  1.00275144  6375
CMS-01                  
1 47256U 20099A   26061.65864066 -.00000181  00000+0  00000+0 0  9999
2 47256   0.0149 136.5446 0006539 152.2006 191.7769  1.00272363 19136
TURKSAT 5A              
1 47306U 21001A   26062.09346661  .00000138  00000+0  00000+0 0  9995
2 47306   0.0212 100.7731 0000121 200.8426 283.8022  1.00270586 18904
TIANTONG-1 3            
1 47321U 21003A   26062.14975223 -.00000169  00000+0  00000+0 0  9997
2 47321   1.8545 333.1891 0006437 343.6351 339.5017  1.00270235 18899
TJS-6                   
1 47613U 21010A   26062.19400046  .00000027  00000+0  00000+0 0  9992
2 47613   0.3263  90.8674 0003229 282.5284  35.8827  1.00270201 18744
SHIYAN-9 (SY-9)         
1 47851U 21019A   26044.36779670 -.00000221  00000+0  00000+0 0  9993
2 47851  16.7978 304.0404 0016854  23.4452  94.4865  1.00262375 22897
SBIRS GEO-5 (USA 315)   
1 48618U 21042A   26062.10594669 -.00000283  00000+0  00000+0 0  9994
2 48618   5.2386 328.3295 0001544 356.9012 327.5585  1.00271475 17702
FENGYUN 4B              
1 48808U 21047A   26062.10802670 -.00000344  00000+0  00000+0 0  9992
2 48808   0.1889  76.8981 0008832 296.5824 290.8175  1.00265595 17500
SXM-8                   
1 48838U 21049A   26061.27197234 -.00000223  00000+0  00000+0 0  9993
2 48838   0.0258  60.0583 0004221 343.6903 129.0399  1.00274439 17525
TIANLIAN 1-05           
1 49011U 21063A   26062.16193363  .00000092  00000+0  00000+0 0  9994
2 49011   1.3203  81.5896 0004670 227.1588 287.2217  1.00271110 17014
